NORAD_CAT_ID,OBJECT_NAME,OBJECT_TYPE,EPOCH,MEAN_MOTION,ECCENTRICITY,INCLINATION,RA_OF_ASC_NODE,ARG_OF_PERICENTER,MEAN_ANOMALY,BSTAR,MEAN_MOTION_DOT,MEAN_MOTION_DDOT,TLE_LINE0,TLE_LINE1,TLE_LINE2,SEMIMAJOR_AXIS,PERIOD,APOGEE,PERIGEE,DECAYED
52309.0,STARLINK-3756,PAYLOAD,2023-01-08 08:23:42,15.08829423,0.0001759,53.2141,240.1379,40.2881,319.8241,0.00020819,3.026e-05,0.0,0 STARLINK-3756,1 52309U 22041BA  23008.34979870  .00003026  00000-0  20819-3 0  9992,2 52309  53.2141 240.1379 0001759  40.2881 319.8241 15.08829423 41294,6917.913000000001,95.438,540.995,538.561,0.0
52309.0,STARLINK-3756,PAYLOAD,2023-01-09 08:14:29,15.08846631,0.0002018,53.2131,235.6778,44.5809,315.5346,0.00046835,7.175e-05,0.0,0 STARLINK-3756,1 52309U 22041BA  23009.34339941  .00007175  00000-0  46835-3 0  9997,2 52309  53.2131 235.6778 0002018  44.5809 315.5346 15.08846631 41447,6917.86,95.437,541.121,538.3290000000002,0.0
52309.0,STARLINK-3756,PAYLOAD,2023-01-09 20:57:34,15.08846148,0.0001959,53.214,233.2982,43.9373,316.1774,0.00033231,5.005e-05,0.0,0 STARLINK-3756,1 52309U 22041BA  23009.87331850  .00005005  00000-0  33231-3 0  9992,2 52309  53.2140 233.2982 0001959  43.9373 316.1774 15.08846148 41524,6917.861999999999,95.437,541.082,538.371,0.0
52309.0,STARLINK-3756,PAYLOAD,2023-01-10 08:05:16,15.0885335,0.0002013,53.2136,231.2163,45.0306,315.0849,0.00037217,5.642e-05,0.0,0 STARLINK-3756,1 52309U 22041BA  23010.33699475  .00005642  00000-0  37217-3 0  9990,2 52309  53.2136 231.2163 0002013  45.0306 315.0849 15.08853350 41590,6917.84,95.437,541.097,538.312,0.0
52309.0,STARLINK-3756,PAYLOAD,2023-01-11 09:31:25,15.08859781,0.0002521,53.21,226.4575,56.7867,303.3367,0.00035805,5.418e-05,0.0,0 STARLINK-3756,1 52309U 22041BA  23011.39682686  .00005418  00000-0  35805-3 0  9995,2 52309  53.2100 226.4575 0002521  56.7867 303.3367 15.08859781 41756,6917.82,95.436,541.429,537.941,0.0
52309.0,STARLINK-3756,PAYLOAD,2023-01-11 15:52:58,15.08832335,0.0001774999999999,53.2137,225.2679,53.0214,307.094,-0.00029472,-4.975e-05,0.0,0 STARLINK-3756,1 52309U 22041BA  23011.66178821 -.00004975  00000-0 -29472-3 0  9998,2 52309  53.2137 225.2679 0001775  53.0214 307.0940 15.08832335 41792,6917.904,95.438,540.997,538.5409999999998,0.0
52309.0,STARLINK-3756,PAYLOAD,2023-01-11 20:39:08,15.08831422,0.0001996,53.2134,224.3764,51.6355,308.4816,-0.00022391,-3.849e-05,0.0,0 STARLINK-3756,1 52309U 22041BA  23011.86051024 -.00003849  00000-0 -22391-3 0  9997,2 52309  53.2134 224.3764 0001996  51.6355 308.4816 15.08831422 41826,6917.906999999998,95.438,541.1519999999998,538.391,0.0
52309.0,STARLINK-3756,PAYLOAD,2023-01-12 20:29:52,15.08881065,0.0002253,53.2137,219.9156,39.9818,320.134,-0.0014407,-0.0002317,0.0,0 STARLINK-3756,1 52309U 22041BA  23012.85408163 -.00023170  00000-0 -14407-2 0  9994,2 52309  53.2137 219.9156 0002253  39.9818 320.1340 15.08881065 41971,6917.755,95.435,541.178,538.061,0.0
52309.0,STARLINK-3756,PAYLOAD,2023-01-12 23:40:42,15.08832264,0.000199,53.2136,219.3211,54.4051,305.7126,0.00038118,5.782e-05,0.0,0 STARLINK-3756,1 52309U 22041BA  23012.98660146  .00005782  00000-0  38118-3 0  9992,2 52309  53.2136 219.3211 0001990  54.4051 305.7126 15.08832264 41994,6917.904,95.438,541.146,538.3919999999998,0.0
52309.0,STARLINK-3756,PAYLOAD,2023-01-13 13:59:10,15.08836052,0.0002004,53.2137,216.6446,54.9986,305.1194,0.00029331,4.383e-05,0.0,0 STARLINK-3756,1 52309U 22041BA  23013.58276354  .00004383  00000-0  29331-3 0  9996,2 52309  53.2137 216.6446 0002004  54.9986 305.1194 15.08836052 42083,6917.892,95.438,541.144,538.371,0.0
52309.0,STARLINK-3756,PAYLOAD,2023-01-13 21:56:06,15.08843539,0.0002020999999999,53.214,215.1575,54.288,305.83,0.00035012,5.289e-05,0.0,0 STARLINK-3756,1 52309U 22041BA  23013.91396184  .00005289  00000-0  35012-3 0  9996,2 52309  53.2140 215.1575 0002021  54.2880 305.8300 15.08843539 42139,6917.87,95.437,541.133,538.336,0.0
52309.0,STARLINK-3756,PAYLOAD,2023-01-14 05:53:02,15.08840815,0.0002000999999999,53.2141,213.6703,53.1773,306.9403,0.00020017,2.899e-05,0.0,0 STARLINK-3756,1 52309U 22041BA  23014.24516260  .00002899  00000-0  20017-3 0  9995,2 52309  53.2141 213.6703 0002001  53.1773 306.9403 15.08840815 42188,6917.878000000001,95.438,541.127,538.359,0.0
52309.0,STARLINK-3756,PAYLOAD,2023-01-15 13:40:45,15.08835496,0.0001955999999999,53.2137,207.7232,61.2939,298.825,-2.5489e-05,-6.94e-06,0.0,0 STARLINK-3756,1 52309U 22041BA  23015.56996690 -.00000694  00000-0 -25489-4 0  9992,2 52309  53.2137 207.7232 0001956  61.2939 298.8250 15.08835496 42386,6917.894,95.438,541.112,538.406,0.0
52309.0,STARLINK-3756,PAYLOAD,2023-01-15 18:26:54,15.08840046,0.0001906999999999,53.2154,206.8314,62.5658,297.5528,4.2666e-05,3.91e-06,0.0,0 STARLINK-3756,1 52309U 22041BA  23015.76868715  .00000391  00000-0  42666-4 0  9998,2 52309  53.2154 206.8314 0001907  62.5658 297.5528 15.08840046 42419,6917.88,95.438,541.064,538.4259999999999,0.0
52309.0,STARLINK-3756,PAYLOAD,2023-01-16 11:56:09,15.08838374,0.0001873,53.2159,203.5608,63.9252,296.1933,0.00012576,1.714e-05,0.0,0 STARLINK-3756,1 52309U 22041BA  23016.49732795  .00001714  00000-0  12576-3 0  9993,2 52309  53.2159 203.5608 0001873  63.9252 296.1933 15.08838374 42529,6917.885,95.438,541.0459999999999,538.455,0.0
52309.0,STARLINK-3756,PAYLOAD,2023-01-16 21:28:27,15.08843136,0.0001905,53.2158,201.7762,62.9834,297.1352,0.00010629,1.404e-05,0.0,0 STARLINK-3756,1 52309U 22041BA  23016.89476600  .00001404  00000-0  10629-3 0  9990,2 52309  53.2158 201.7762 0001905  62.9834 297.1352 15.08843136 42584,6917.871,95.437,541.054,538.418,0.0
52309.0,STARLINK-3756,PAYLOAD,2023-01-17 11:46:56,15.08835704,0.0001814,53.2156,199.0999,66.3065,293.8117,7.9155e-05,9.72e-06,0.0,0 STARLINK-3756,1 52309U 22041BA  23017.49093171  .00000972  00000-0  79155-4 0  9994,2 52309  53.2156 199.0999 0001814  66.3065 293.8117 15.08835704 42670,6917.894,95.438,541.013,538.504,0.0
52309.0,STARLINK-3756,PAYLOAD,2023-01-17 18:08:28,15.08839208,0.0001808,53.2155,197.9105,66.4382,293.68,0.00010195,1.335e-05,0.0,0 STARLINK-3756,1 52309U 22041BA  23017.75588948  .00001335  00000-0  10195-3 0  9996,2 52309  53.2155 197.9105 0001808  66.4382 293.6800 15.08839208 42716,6917.883000000001,95.438,540.999,538.497,0.0
52309.0,STARLINK-3756,PAYLOAD,2023-01-18 11:37:43,15.08843703,0.0001865,53.2155,194.6397,63.5221,296.5963,9.5859e-05,1.238e-05,0.0,0 STARLINK-3756,1 52309U 22041BA  23018.48452747  .00001238  00000-0  95859-4 0  9997,2 52309  53.2155 194.6397 0001865  63.5221 296.5963 15.08843703 42825,6917.869000000001,95.437,541.024,538.444,0.0
52309.0,STARLINK-3756,PAYLOAD,2023-01-18 17:59:15,15.08846495,0.0001751999999999,53.2153,193.4495,67.9657,292.1521,0.00011259,1.505e-05,0.0,0 STARLINK-3756,1 52309U 22041BA  23018.74948435  .00001505  00000-0  11259-3 0  9998,2 52309  53.2153 193.4495 0001752  67.9657 292.1521 15.08846495 42862,6917.861,95.437,540.938,538.514,0.0
52309.0,STARLINK-3756,PAYLOAD,2023-01-19 05:06:57,15.08845777,0.0001682,53.2151,191.3683,71.7249,288.3926,8.631100000000001e-05,1.086e-05,0.0,0 STARLINK-3756,1 52309U 22041BA  23019.21316461  .00001086  00000-0  86311-4 0  9995,2 52309  53.2151 191.3683 0001682  71.7249 288.3926 15.08845777 42934,6917.863,95.437,540.891,538.564,0.0
52309.0,STARLINK-3756,PAYLOAD,2023-01-19 14:39:16,15.08835713,0.0001713,53.2151,189.584,69.4385,290.6791,5.4832e-05,5.85e-06,0.0,0 STARLINK-3756,1 52309U 22041BA  23019.61061212  .00000585  00000-0  54832-4 0  9996,2 52309  53.2151 189.5840 0001713  69.4385 290.6791 15.08835713 42999,6917.893,95.438,540.944,538.573,0.0
52309.0,STARLINK-3756,PAYLOAD,2023-01-19 17:50:02,15.08842191,0.0001211999999999,53.216,188.9856,87.0203,273.0928,7.6821e-05,9.35e-06,0.0,0 STARLINK-3756,1 52309U 22041BA  23019.74308624  .00000935  00000-0  76821-4 0  9992,2 52309  53.2160 188.9856 0001212  87.0203 273.0928 15.08842191 43017,6917.874,95.437,540.577,538.9,0.0
52309.0,STARLINK-3756,PAYLOAD,2023-01-21 03:13:08,15.08838788,0.0001625,53.2158,182.7435,75.5215,284.5957,5.1619e-05,5.34e-06,0.0,0 STARLINK-3756,1 52309U 22041BA  23021.13413017  .00000534  00000-0  51619-4 0  9994,2 52309  53.2158 182.7435 0001625  75.5215 284.5957 15.08838788 43221,6917.884,95.438,540.873,538.625,0.0
52309.0,STARLINK-3756,PAYLOAD,2023-01-21 11:10:05,15.08829858,0.000172,53.2153,181.2575,75.2657,284.8526,3.5281e-05,2.73e-06,0.0,0 STARLINK-3756,1 52309U 22041BA  23021.46533753  .00000273  00000-0  35281-4 0  9997,2 52309  53.2153 181.2575 0001720  75.2657 284.8526 15.08829858 43276,6917.911,95.438,540.966,538.587,0.0
52309.0,STARLINK-3756,PAYLOAD,2023-01-22 11:00:52,15.08837986,0.0001534,53.2156,176.7971,74.6523,285.4638,2.3171e-05,8.1e-07,0.0,0 STARLINK-3756,1 52309U 22041BA  23022.45893708  .00000081  00000-0  23171-4 0  9998,2 52309  53.2156 176.7971 0001534  74.6523 285.4638 15.08837986 43425,6917.887,95.438,540.813,538.69,0.0
52309.0,STARLINK-3756,PAYLOAD,2023-01-22 17:22:25,15.08792421,0.0001803,53.2158,175.608,78.0389,282.0806,0.00089462,0.0001395999999999,0.0,0 STARLINK-3756,1 52309U 22041BA  23022.72390383  .00013960  00000-0  89462-3 0  9993,2 52309  53.2158 175.6080 0001803  78.0389 282.0806 15.08792421 43461,6918.026,95.441,541.138,538.644,0.0
52309.0,STARLINK-3756,PAYLOAD,2023-01-23 02:54:43,15.08842266,0.0001440999999999,53.2152,173.8252,80.2254,279.8901,0.00011832,1.596e-05,0.0,0 STARLINK-3756,1 52309U 22041BA  23023.12133222  .00001596  00000-0  11832-3 0  9993,2 52309  53.2152 173.8252 0001441  80.2254 279.8901 15.08842266 43520,6917.8730000000005,95.437,540.735,538.742,0.0
52309.0,STARLINK-3756,PAYLOAD,2023-01-23 12:27:02,15.08839639,0.0001828,53.2152,172.0404,78.6424,281.4773,4.685e-05,4.58e-06,0.0,0 STARLINK-3756,1 52309U 22041BA  23023.51877718  .00000458  00000-0  46850-4 0  9996,2 52309  53.2152 172.0404 0001828  78.6424 281.4773 15.08839639 43581,6917.880999999999,95.438,541.011,538.482,0.0
